     2.100          NAVIGATION                              RINEX VERSION / TYPE
fic2rin                                 09/16/2017 00:15:17 PGM / RUN BY / DATE
                                                            END OF HEADER
26 17  9 15 18  0  0.0 -.425169710070D-03  .105728759081D-10  .000000000000D+00
     .140000000000D+02  .883437500000D+02  .431625121776D-08  .941163836120D+00
     .464916229248D-05  .188720365986D-02  .882893800735D-05  .515377270317D+04
     .496800000000D+06 -.186264514923D-08 -.228656092673D+00  .745058059692D-08
     .958347526427D+00  .206687500000D+03 -.955367136590D-02 -.805997858760D-08
     .156792245312D-09  .100000000000D+01  .196600000000D+04  .000000000000D+00
     .240000000000D+01  .000000000000D+00  .745058059692D-08  .140000000000D+02
     .489606000000D+06  .400000000000D+01
27 17  9 15 18  0  0.0  .325304456055D-03  .500222085975D-11  .000000000000D+00
     .600000000000D+01  .859375000000D+01  .448340103736D-08 -.879533934039D+00
     .476837158203D-06  .492566043977D-02  .250339508057D-05  .515366905975D+04
     .496800000000D+06  .158324837685D-06  .827846397731D+00  .111758708954D-07
     .975683456767D+00  .337000000000D+03  .394938607395D+00 -.834249035535D-08
     .176793078427D-09  .100000000000D+01  .196600000000D+04  .000000000000D+00
     .240000000000D+01  .000000000000D+00  .139698386192D-08  .600000000000D+01
     .489606000000D+06  .400000000000D+01
28 17  9 15 18  0  0.0  .646049156785D-03  .318323145621D-11  .000000000000D+00
     .460000000000D+02  .857187500000D+02  .381694470535D-08  .623027844182D-02
     .447034835815D-05  .198200540617D-01  .798515975475D-05  .515365925598D+04
     .496800000000D+06 -.393018126488D-06 -.131344904734D+00  .204890966415D-07
     .988129573186D+00  .244781250000D+03 -.156462882948D+01 -.809390857235D-08
     .204651381694D-09  .100000000000D+01  .196600000000D+04  .000000000000D+00
     .340000000000D+01  .000000000000D+00 -.111758708954D-07  .460000000000D+02
     .489606000000D+06  .400000000000D+01
29 17  9 15 18  0  0.0  .562642235309D-03 -.454747350886D-11  .000000000000D+00
     .350000000000D+02 -.137500000000D+02  .439589739249D-08  .385523196417D+00
    -.927597284317D-06  .515524763614D-03  .265054404736D-05  .515356517220D+04
     .496800000000D+06 -.298023223877D-07  .890722085739D+00  .540167093277D-07
     .981956149592D+00  .343406250000D+03  .889604373902D+00 -.829034532616D-08
     .119647840956D-09  .100000000000D+01  .196600000000D+04  .000000000000D+00
     .240000000000D+01  .000000000000D+00 -.102445483208D-07  .350000000000D+02
     .489606000000D+06  .400000000000D+01
30 17  9 15 18  0  0.0  .140343792737D-03 -.216004991671D-11  .000000000000D+00
     .118000000000D+03  .584375000000D+01  .469483841601D-08  .253243119546D+01
     .260770320892D-06  .306333438493D-02  .955350697041D-05  .515363167953D+04
     .496800000000D+06  .558793544769D-08 -.120401743536D+01  .167638063431D-07
     .946569881646D+00  .190343750000D+03 -.306235830694D+01 -.807176479283D-08
    -.498592196938D-09  .100000000000D+01  .196600000000D+04  .000000000000D+00
     .240000000000D+01  .000000000000D+00  .372529029846D-08  .118000000000D+03
     .489606000000D+06  .400000000000D+01
31 17  9 15 18  0  0.0  .175086315721D-03 -.250111042988D-11  .000000000000D+00
     .550000000000D+02 -.184375000000D+01  .423767651624D-08  .234346847073D+01
     .875443220139D-07  .850227952469D-02  .102911144495D-04  .515378330040D+04
     .496800000000D+06 -.670552253723D-07 -.122990665126D+01  .353902578354D-07
     .965580859039D+00  .186437500000D+03 -.241366865602D+00 -.781961143249D-08
    -.612882671880D-09  .100000000000D+01  .196600000000D+04  .000000000000D+00
     .240000000000D+01  .000000000000D+00 -.135041773319D-07  .550000000000D+02
     .489606000000D+06  .400000000000D+01
16 17  9 15 17 59 44.0  .370084308088D-04  .000000000000D+00  .000000000000D+00
     .300000000000D+01  .820000000000D+02  .373122684915D-08 -.168593599057D-01
     .446103513241D-05  .927597633563D-02  .857561826706D-05  .515376456261D+04
     .496784000000D+06  .800937414169D-07 -.135807359322D+00  .745058059692D-07
     .989312127404D+00  .228000000000D+03  .460067500847D+00 -.790104339589D-08
     .233224000430D-09  .100000000000D+01  .196600000000D+04  .000000000000D+00
     .240000000000D+01  .000000000000D+00 -.107102096081D-07  .300000000000D+01
     .495546000000D+06  .400000000000D+01
16 17  9 15 19 59 44.0  .370084308088D-04  .000000000000D+00  .000000000000D+00
     .420000000000D+02  .979375000000D+02  .360229290710D-08  .103310802674D+01
     .523775815964D-05  .927812384907D-02  .904127955437D-05  .515376943970D+04
     .503984000000D+06 -.856816768646D-07 -.135863308624D+00  .782310962677D-07
     .989313691263D+00  .219000000000D+03  .460217691331D+00 -.781853995929D-08
     .118933525487D-09  .100000000000D+01  .196600000000D+04  .000000000000D+00
     .240000000000D+01  .000000000000D+00 -.107102096081D-07  .420000000000D+02
     .496806000000D+06  .400000000000D+01
 1 17  9 15 20  0  0.0 -.199070200324D-05 -.454747350886D-12  .000000000000D+00
     .930000000000D+02 -.111906250000D+03  .438053960991D-08 -.204836422508D+01
    -.599585473537D-05  .705274683423D-02  .745989382267D-05  .515368267250D+04
     .504000000000D+06  .577419996262D-07  .188527898658D+01 -.100582838058D-06
     .968313767024D+00  .238656250000D+03  .622431854282D+00 -.797568936233D-08
     .321441960776D-11  .100000000000D+01  .196600000000D+04  .000000000000D+00
     .340000000000D+01  .000000000000D+00  .558793544769D-08  .930000000000D+02
     .496806000000D+06  .400000000000D+01
 2 17  9 15 20  0  0.0  .329483766109D-03 -.909494701773D-11  .000000000000D+00
     .750000000000D+02 -.929687500000D+02  .490127558637D-08 -.165208952437D+01
    -.463426113129D-05  .170576802921D-01  .739842653275D-05  .515358305168D+04
     .504000000000D+06  .350177288055D-06  .182952143370D+01  .163912773132D-06
     .947268338717D+00  .222968750000D+03 -.195549810788D+01 -.812319550656D-08
    -.385730352932D-10  .100000000000D+01  .196600000000D+04  .000000000000D+00
     .240000000000D+01  .000000000000D+00 -.204890966415D-07  .750000000000D+02
     .496806000000D+06  .400000000000D+01
 3 17  9 15 20  0  0.0 -.674440525472D-04  .432009983342D-11  .000000000000D+00
     .170000000000D+02 -.881250000000D+01  .450375902821D-08 -.297878404412D+01
    -.488013029099D-06  .987402396277D-03  .109933316708D-04  .515366154289D+04
     .504000000000D+06 -.409781932831D-07  .292783933957D+01 -.912696123123D-07
     .960579276714D+00  .167000000000D+03  .426358152488D+00 -.789211445253D-08
     .366443835285D-09  .100000000000D+01  .196600000000D+04  .000000000000D+00
     .240000000000D+01  .000000000000D+00  .232830643654D-08  .170000000000D+02
     .496806000000D+06  .400000000000D+01
 5 17  9 15 20  0  0.0 -.293250195682D-04  .136424205266D-11  .000000000000D+00
     .250000000000D+02  .409375000000D+01  .494342019901D-08  .878707067871D+00
     .432133674622D-06  .519950175658D-02  .105258077383D-04  .515355695152D+04
     .504000000000D+06 -.298023223877D-07  .290950549576D+01  .689178705215D-07
     .947508112453D+00  .168968750000D+03  .581173259079D+00 -.819534136886D-08
     .313584490624D-09  .100000000000D+01  .196600000000D+04  .000000000000D+00
     .240000000000D+01  .000000000000D+00 -.107102096081D-07  .250000000000D+02
     .496806000000D+06  .400000000000D+01
 6 17  9 15 20  0  0.0  .397652853280D-03  .306954461848D-11  .000000000000D+00
     .280000000000D+02 -.101968750000D+03  .441161233279D-08 -.191643448959D+01
    -.522285699844D-05  .562606728636D-03  .781938433647D-05  .515375192833D+04
     .504000000000D+06 -.279396772385D-07  .187691529959D+01  .260770320892D-07
     .968065155799D+00  .234375000000D+03 -.109053681431D+01 -.802926302246D-08
    -.853606984729D-10  .100000000000D+01  .196600000000D+04  .000000000000D+00
     .240000000000D+01  .000000000000D+00  .465661287308D-08  .280000000000D+02
     .496806000000D+06  .400000000000D+01
 7 17  9 15 20  0  0.0  .305690802634D-03 -.488853402203D-11  .000000000000D+00
     .340000000000D+02 -.828125000000D+01  .440232623170D-08 -.267598950438D+01
    -.506639480591D-06  .110654840246D-01  .964291393757D-05  .515372213554D+04
     .504000000000D+06 -.316649675369D-07 -.124139140667D+01 -.121071934700D-06
     .960852304041D+00  .192531250000D+03 -.256101878131D+01 -.783104047998D-08
    -.453947480163D-09  .100000000000D+01  .196600000000D+04  .000000000000D+00
     .240000000000D+01  .630000000000D+02 -.111758708954D-07  .340000000000D+02
     .496806000000D+06  .400000000000D+01
 8 17  9 15 20  0  0.0 -.736173242331D-04 -.136424205266D-11  .000000000000D+00
     .810000000000D+02  .100000000000D+02  .459662003910D-08  .667835946779D+00
     .528991222382D-06  .261437660083D-02  .232830643654D-05  .515368857574D+04
     .504000000000D+06  .409781932831D-07  .821328456930D+00 -.186264514923D-08
     .967545107440D+00  .336875000000D+03 -.628132709986D+00 -.846570977365D-08
     .165721188667D-09  .100000000000D+01  .196600000000D+04  .000000000000D+00
     .240000000000D+01  .000000000000D+00  .558793544769D-08  .810000000000D+02
     .496806000000D+06  .400000000000D+01
 9 17  9 15 20  0  0.0  .443235039711D-03  .613908923697D-11  .000000000000D+00
     .540000000000D+02  .189375000000D+02  .512414201251D-08  .296953546724D+00
     .931322574615D-06  .792877981439D-03  .575184822083D-05  .515376941681D+04
     .504000000000D+06 -.149011611938D-07 -.232023981274D+01  .596046447754D-07
     .953260897360D+00  .264187500000D+03  .188386321104D+01 -.837713465557D-08
     .892894335490D-11  .100000000000D+01  .196600000000D+04  .000000000000D+00
     .240000000000D+01  .000000000000D+00  .931322574615D-09  .540000000000D+02
     .496806000000D+06  .400000000000D+01
